{"fetched_at":"2026-03-30T06:02:59Z","count":15439,"tles":[{"name":"STARLINK-31852","line1":"1 59841U 24097G   26087.89728109  .00002785  00000+0  11072-3 0  9991","line2":"2 59841  43.0029 158.1566 0000704 297.1176  62.9604 15.27572875104947","category":"Starlink"}]}